start=new Date('2022-11-08T00:00:00.000Z').valueOf();
sats=[{"LAUNCH_DATE":"2021-12-02","ELEMENT_SET_NO":"999","GP_ID":"217106174","APOAPSIS":"540.847","ARG_OF_PERICENTER":"55.3597","CENTER_NAME":"EARTH","MEAN_MOTION":"15.08829964","PERIAPSIS":"538.705","FILE":"3648233","OBJECT_ID":"2021-115AH","EPHEMERIS_TYPE":"0","COUNTRY_CODE":"US","REV_AT_EPOCH":"5168","RA_OF_ASC_NODE":"216.2691","TIME_SYSTEM":"UTC","OBJECT_NAME":"STARLINK-3210","MEAN_MOTION_DDOT":"0.0000000000000","PERIOD":"95.438","MEAN_MOTION_DOT":"0.00004925","NORAD_CAT_ID":"49755","CLASSIFICATION_TYPE":"U","SITE":"AFETR","TLE_LINE2":"2 49755  53.2152 216.2691 0001548  55.3597 304.7541 15.08829964 51685","INCLINATION":"53.2152","MEAN_ANOMALY":"304.7541","BSTAR":"0.00032740000000","OBJECT_TYPE":"PAYLOAD","DECAY_DATE":null,"REF_FRAME":"TEME","EPOCH":"2022-11-07T20:10:07.984416","MEAN_ELEMENT_THEORY":"SGP4","SEMIMAJOR_AXIS":"6917.911","TLE_LINE1":"1 49755U 21115AH  22311.84037019  .00004925  00000-0  32740-3 0  9990","RCS_SIZE":"LARGE","ECCENTRICITY":"0.00015480"},{"ARG_OF_PERICENTER":"47.6849","CENTER_NAME":"EARTH","MEAN_MOTION":"15.08824789","PERIAPSIS":"538.459","FILE":"3648233","LAUNCH_DATE":"2021-12-02","ELEMENT_SET_NO":"999","GP_ID":"217106424","APOAPSIS":"541.125","COUNTRY_CODE":"US","REV_AT_EPOCH":"5182","TIME_SYSTEM":"UTC","RA_OF_ASC_NODE":"206.1498","OBJECT_ID":"2021-115AJ","EPHEMERIS_TYPE":"0","SITE":"AFETR","OBJECT_NAME":"STARLINK-3207","MEAN_MOTION_DDOT":"0.0000000000000","PERIOD":"95.439","MEAN_MOTION_DOT":"0.00003143","NORAD_CAT_ID":"49756","CLASSIFICATION_TYPE":"U","OBJECT_TYPE":"PAYLOAD","BSTAR":"0.00021557000000","DECAY_DATE":null,"REF_FRAME":"TEME","EPOCH":"2022-11-07T20:43:14.797344","MEAN_ELEMENT_THEORY":"SGP4","TLE_LINE1":"1 49756U 21115AJ  22311.86336571  .00003143  00000-0  21557-3 0  9993","RCS_SIZE":"LARGE","SEMIMAJOR_AXIS":"6917.927","ECCENTRICITY":"0.00019270","TLE_LINE2":"2 49756  53.2162 206.1498 0001927  47.6849 312.4306 15.08824789 51826","INCLINATION":"53.2162","MEAN_ANOMALY":"312.4306"},{"COUNTRY_CODE":"US","RA_OF_ASC_NODE":"206.1865","TIME_SYSTEM":"UTC","REV_AT_EPOCH":"5182","OBJECT_ID":"2021-115AK","EPHEMERIS_TYPE":"0","ARG_OF_PERICENTER":"39.6785","FILE":"3648233","CENTER_NAME":"EARTH","PERIAPSIS":"538.385","MEAN_MOTION":"15.08821545","LAUNCH_DATE":"2021-12-02","APOAPSIS":"541.219","ELEMENT_SET_NO":"999","GP_ID":"217107675","DECAY_DATE":null,"EPOCH":"2022-11-07T20:32:39.319296","REF_FRAME":"TEME","OBJECT_TYPE":"PAYLOAD","BSTAR":"0.00028429000000","RCS_SIZE":"LARGE","TLE_LINE1":"1 49757U 21115AK  22311.85601064  .00004237  00000-0  28429-3 0  9995","ECCENTRICITY":"0.00020480","SEMIMAJOR_AXIS":"6917.937","MEAN_ELEMENT_THEORY":"SGP4","TLE_LINE2":"2 49757  53.2168 206.1865 0002048  39.6785 320.4357 15.08821545 51828","INCLINATION":"53.2168","MEAN_ANOMALY":"320.4357","SITE":"AFETR","OBJECT_NAME":"STARLINK-3197","MEAN_MOTION_DDOT":"0.0000000000000","MEAN_MOTION_DOT":"0.00004237","NORAD_CAT_ID":"49757","CLASSIFICATION_TYPE":"U","PERIOD":"95.439"},{"APOAPSIS":"541.371","ELEMENT_SET_NO":"999","GP_ID":"217107926","LAUNCH_DATE":"2021-12-02","FILE":"3648233","CENTER_NAME":"EARTH","MEAN_MOTION":"15.08841027","PERIAPSIS":"538.113","ARG_OF_PERICENTER":"34.2606","EPHEMERIS_TYPE":"0","OBJECT_ID":"2021-115AL","TIME_SYSTEM":"UTC","RA_OF_ASC_NODE":"206.1308","REV_AT_EPOCH":"5182","COUNTRY_CODE":"US","MEAN_MOTION_DOT":"0.00003911","NORAD_CAT_ID":"49758","CLASSIFICATION_TYPE":"U","PERIOD":"95.437","MEAN_MOTION_DDOT":"0.0000000000000","OBJECT_NAME":"STARLINK-3194","SITE":"AFETR","INCLINATION":"53.2167","MEAN_ANOMALY":"325.8537","TLE_LINE2":"2 49758  53.2167 206.1308 0002355  34.2606 325.8537 15.08841027 51820","TLE_LINE1":"1 49758U 21115AL  22311.87072627  .00003911  00000-0  26369-3 0  9994","RCS_SIZE":"LARGE","ECCENTRICITY":"0.00023550","SEMIMAJOR_AXIS":"6917.877","MEAN_ELEMENT_THEORY":"SGP4","DECAY_DATE":null,"EPOCH":"2022-11-07T20:53:50.749728","REF_FRAME":"TEME","BSTAR":"0.00026369000000","OBJECT_TYPE":"PAYLOAD"},{"OBJECT_ID":"2021-115AM","EPHEMERIS_TYPE":"0","COUNTRY_CODE":"US","TIME_SYSTEM":"UTC","RA_OF_ASC_NODE":"210.0496","REV_AT_EPOCH":"5169","LAUNCH_DATE":"2021-12-02","APOAPSIS":"541.182","GP_ID":"217106674","ELEMENT_SET_NO":"999","ARG_OF_PERICENTER":"45.6658","FILE":"3648233","MEAN_MOTION":"15.08845053","PERIAPSIS":"538.278","CENTER_NAME":"EARTH","TLE_LINE2":"2 49759  53.2153 210.0496 0002099  45.6658 314.4505 15.08845053 51693","MEAN_ANOMALY":"314.4505","INCLINATION":"53.2153","EPOCH":"2022-11-06T23:57:54.674208","REF_FRAME":"TEME","DECAY_DATE":null,"BSTAR":"0.00033781000000","OBJECT_TYPE":"PAYLOAD","ECCENTRICITY":"0.00020990","TLE_LINE1":"1 49759U 21115AM  22310.99854947  .00005093  00000-0  33781-3 0  9999","RCS_SIZE":"LARGE","SEMIMAJOR_AXIS":"6917.865","MEAN_ELEMENT_THEORY":"SGP4","OBJECT_NAME":"STARLINK-3204","MEAN_MOTION_DDOT":"0.0000000000000","NORAD_CAT_ID":"49759","CLASSIFICATION_TYPE":"U","MEAN_MOTION_DOT":"0.00005093","PERIOD":"95.437","SITE":"AFETR"},{"FILE":"3648233","CENTER_NAME":"EARTH","PERIAPSIS":"538.298","MEAN_MOTION":"15.08849925","ARG_OF_PERICENTER":"48.1826","APOAPSIS":"541.133","ELEMENT_SET_NO":"999","GP_ID":"217106924","LAUNCH_DATE":"2021-12-02","RA_OF_ASC_NODE":"206.6983","TIME_SYSTEM":"UTC","REV_AT_EPOCH":"5181","COUNTRY_CODE":"US","EPHEMERIS_TYPE":"0","OBJECT_ID":"2021-115AN","SITE":"AFETR","MEAN_MOTION_DOT":"0.00023303","CLASSIFICATION_TYPE":"U","NORAD_CAT_ID":"49760","PERIOD":"95.437","MEAN_MOTION_DDOT":"0.0000000000000","OBJECT_NAME":"STARLINK-3199","SEMIMAJOR_AXIS":"6917.850","TLE_LINE1":"1 49760U 21115AN  22311.74561149  .00023303  00000-0  14770-2 0  9994","RCS_SIZE":"LARGE","ECCENTRICITY":"0.00020490","MEAN_ELEMENT_THEORY":"SGP4","DECAY_DATE":null,"EPOCH":"2022-11-07T17:53:40.832736","REF_FRAME":"TEME","OBJECT_TYPE":"PAYLOAD","BSTAR":"0.00147700000000","INCLINATION":"53.2161","MEAN_ANOMALY":"311.9341","TLE_LINE2":"2 49760  53.2161 206.6983 0002049  48.1826 311.9341 15.08849925 51812"},{"PERIOD":"95.437","CLASSIFICATION_TYPE":"U","NORAD_CAT_ID":"49761","MEAN_MOTION_DOT":"0.00029536","OBJECT_NAME":"STARLINK-3203","MEAN_MOTION_DDOT":"0.0000000000000","SITE":"AFETR","MEAN_ANOMALY":"321.3464","INCLINATION":"53.2162","TLE_LINE2":"2 49761  53.2162 206.7394 0002180  38.7685 321.3464 15.08855046 51806","MEAN_ELEMENT_THEORY":"SGP4","SEMIMAJOR_AXIS":"6917.834","TLE_LINE1":"1 49761U 21115AP  22311.73456758  .00029536  00000-0  18653-2 0  9991","RCS_SIZE":"LARGE","ECCENTRICITY":"0.00021800","OBJECT_TYPE":"PAYLOAD","BSTAR":"0.00186530000000","REF_FRAME":"TEME","EPOCH":"2022-11-07T17:37:46.638912","DECAY_DATE":null,"GP_ID":"217107176","ELEMENT_SET_NO":"999","APOAPSIS":"541.207","LAUNCH_DATE":"2021-12-02","PERIAPSIS":"538.191","MEAN_MOTION":"15.08855046","CENTER_NAME":"EARTH","FILE":"3648233","ARG_OF_PERICENTER":"38.7685","EPHEMERIS_TYPE":"0","OBJECT_ID":"2021-115AP","REV_AT_EPOCH":"5180","RA_OF_ASC_NODE":"206.7394","TIME_SYSTEM":"UTC","COUNTRY_CODE":"US"},{"SITE":"AFETR","PERIOD":"95.437","MEAN_MOTION_DOT":"0.00011337","CLASSIFICATION_TYPE":"U","NORAD_CAT_ID":"49762","MEAN_MOTION_DDOT":"0.0000000000000","OBJECT_NAME":"STARLINK-3195","MEAN_ELEMENT_THEORY":"SGP4","TLE_LINE1":"1 49762U 21115AQ  22311.68671115  .00011337  00000-0  72907-3 0  9995","RCS_SIZE":"LARGE","ECCENTRICITY":"0.00018060","SEMIMAJOR_AXIS":"6917.858","OBJECT_TYPE":"PAYLOAD","BSTAR":"0.00072907000000","DECAY_DATE":null,"REF_FRAME":"TEME","EPOCH":"2022-11-07T16:28:51.843360","INCLINATION":"53.2167","MEAN_ANOMALY":"320.6709","TLE_LINE2":"2 49762  53.2167 206.9639 0001806  39.4415 320.6709 15.08847439 51800","CENTER_NAME":"EARTH","PERIAPSIS":"538.473","MEAN_MOTION":"15.08847439","FILE":"3648233","ARG_OF_PERICENTER":"39.4415","ELEMENT_SET_NO":"999","GP_ID":"217107427","APOAPSIS":"540.972","LAUNCH_DATE":"2021-12-02","REV_AT_EPOCH":"5180","TIME_SYSTEM":"UTC","RA_OF_ASC_NODE":"206.9639","COUNTRY_CODE":"US","EPHEMERIS_TYPE":"0","OBJECT_ID":"2021-115AQ"},{"SITE":"AFETR","MEAN_MOTION_DDOT":"0.0000000000000","OBJECT_NAME":"STARLINK-3198","MEAN_MOTION_DOT":"0.00014471","NORAD_CAT_ID":"49763","CLASSIFICATION_TYPE":"U","PERIOD":"95.437","DECAY_DATE":null,"REF_FRAME":"TEME","EPOCH":"2022-11-07T09:51:27.040032","OBJECT_TYPE":"PAYLOAD","BSTAR":"0.00092523000000","TLE_LINE1":"1 49763U 21115AR  22311.41072963  .00014471  00000-0  92523-3 0  9991","SEMIMAJOR_AXIS":"6917.856","RCS_SIZE":"LARGE","ECCENTRICITY":"0.00023700","MEAN_ELEMENT_THEORY":"SGP4","TLE_LINE2":"2 49763  53.2165 208.1990 0002370  38.6933 321.4229 15.08847841 51764","INCLINATION":"53.2165","MEAN_ANOMALY":"321.4229","ARG_OF_PERICENTER":"38.6933","FILE":"3648233","CENTER_NAME":"EARTH","MEAN_MOTION":"15.08847841","PERIAPSIS":"538.082","LAUNCH_DATE":"2021-12-02","APOAPSIS":"541.361","ELEMENT_SET_NO":"999","GP_ID":"217106175","COUNTRY_CODE":"US","TIME_SYSTEM":"UTC","RA_OF_ASC_NODE":"208.1990","REV_AT_EPOCH":"5176","OBJECT_ID":"2021-115AR","EPHEMERIS_TYPE":"0"},{"RA_OF_ASC_NODE":"209.6019","TIME_SYSTEM":"UTC","REV_AT_EPOCH":"5283","COUNTRY_CODE":"US","EPHEMERIS_TYPE":"0","OBJECT_ID":"2021-115AS","FILE":"3648233","CENTER_NAME":"EARTH","MEAN_MOTION":"15.08833639","PERIAPSIS":"537.960","ARG_OF_PERICENTER":"33.6440","APOAPSIS":"541.570","ELEMENT_SET_NO":"999","GP_ID":"217106425","LAUNCH_DATE":"2021-12-02","RCS_SIZE":"LARGE","TLE_LINE1":"1 49764U 21115AS  22311.09791780  .00001569  00000-0  11669-3 0  9997","SEMIMAJOR_AXIS":"6917.900","ECCENTRICITY":"0.00026090","MEAN_ELEMENT_THEORY":"SGP4","DECAY_DATE":null,"REF_FRAME":"TEME","EPOCH":"2022-11-07T02:21:00.097920","BSTAR":"0.00011669000000","OBJECT_TYPE":"PAYLOAD","INCLINATION":"53.2161","MEAN_ANOMALY":"326.4718","TLE_LINE2":"2 49764  53.2161 209.6019 0002609  33.6440 326.4718 15.08833639 52839","SITE":"AFETR","MEAN_MOTION_DOT":"0.00001569","NORAD_CAT_ID":"49764","CLASSIFICATION_TYPE":"U","PERIOD":"95.438","MEAN_MOTION_DDOT":"0.0000000000000","OBJECT_NAME":"STARLINK-3206"}];
